CZ-4B R/B               
1 28415U 04035C   25283.83482350  .00008338  00000+0  32153-3 0  9993
2 28415  97.3694 315.0511 0035751 137.2642 223.1386 15.25957926157034
CZ-2C R/B               
1 28480U 04046B   25283.49860492  .00000255  00000+0  11053-3 0  9992
2 28480  98.1925 202.8271 0138399 238.8075 119.9479 14.26900015 87087
ARIANE 5 R/B            
1 28499U 04049H   25283.85030788  .00001528  00000+0  17542-3 0  9995
2 28499  98.2495  81.9023 0085981 116.3054 244.7024 14.84814898123559
CZ-2D R/B               
1 28738U 05024B   25283.88580137  .00027799  00000+0  51448-3 0  9997
2 28738  97.3699 289.8575 0004803 186.7725 173.3462 15.48983716116510
ALOS (DAICHI)           
1 28931U 06002A   25283.84004456  .00002025  00000+0  35243-3 0  9990
2 28931  98.0982 235.8217 0002290  71.6955 288.4500 14.69167616 51476
H-2A R/B                
1 28932U 06002B   25283.78880333  .00008934  00000+0  49100-3 0  9992
2 28932  98.2268  53.5059 0056573  31.2186 329.2382 15.12976443 71745
RESURS-DK 1             
1 29228U 06021A   25283.91146815  .00003013  00000+0  18301-3 0  9999
2 29228  69.9330 264.1388 0006374 315.8284  44.2372 15.11634070 64884
CZ-4B R/B               
1 29507U 06046C   25283.84224075  .00005206  00000+0  27819-3 0  9993
2 29507  97.5832 324.1555 0036255  67.5468 292.9598 15.14965091 37343
CZ-2C R/B               
1 31114U 07010B   25283.59274083  .00000166  00000+0  95361-4 0  9996
2 31114  98.3926  39.4394 0059219  11.8118 348.4433 14.20174245958413
COSMO-SKYMED 1          
1 31598U 07023A   25283.95813784  .00002710  00000+0  25243-3 0  9991
2 31598  97.8883 108.9677 0001244  80.7059 279.4302 14.95123160992514
COSMOS 2428             
1 31792U 07029A   25283.94072387 -.00000220  00000+0 -92385-4 0  9996
2 31792  70.9404 157.7169 0002213 171.5876 188.5283 14.12899813942946
SL-16 R/B               
1 31793U 07029B   25283.87906513  .00000112  00000+0  82999-4 0  9994
2 31793  70.9740 127.2919 0002541 266.0856 105.6608 14.14802259944186
KORONAS-FOTON           
1 33504U 09003A   25283.86307151  .00013380  00000+0  34398-3 0  9992
2 33504  82.4307  71.1402 0011282 339.9850  20.0951 15.39074746922665
CZ-2C R/B               
1 37731U 11030B   25283.87558170  .00001696  00000+0  22239-3 0  9999
2 37731  97.8301 239.4282 0054577 117.0170 260.0942 14.80573932767922
H-2A R/B                
1 38341U 12025E   25283.82196662  .00004275  00000+0  40074-3 0  9994
2 38341  98.4492 234.2735 0047590  82.8858 277.7768 14.93769039725837
SHIJIAN-16 (SJ-16)      
1 39358U 13057A   25283.96623099  .00001333  00000+0  13510-3 0  9990
2 39358  74.9695 108.3978 0016144 117.8583 242.4243 14.91668170649176
SL-4 R/B                
1 39679U 14021B   25283.87458150  .00013174  00000+0  33548-3 0  9991
2 39679  51.6096 345.5614 0106618 279.0626  79.8303 15.34238379633237
ALOS-2                  
1 39766U 14029A   25283.97973672  .00002125  00000+0  29127-3 0  9990
2 39766  97.9226  19.7202 0001454  97.0744 263.0633 14.79483017614732
YAOGAN-29               
1 41038U 15069A   25283.99606495  .00000548  00000+0  74518-4 0  9990
2 41038  98.0291 306.9423 0002853 103.5059 256.6472 14.82778652533693
ASTRO-H (HITOMI)        
1 41337U 16012A   25283.58884155  .00004132  00000+0  25063-3 0  9990
2 41337  30.9999 244.3076 0010303 263.7953  96.1511 15.08770190529532
HXMT (HUIYAN)           
1 42758U 17034A   25283.99054250  .00005779  00000+0  31027-3 0  9998
2 42758  43.0133 127.5705 0033049   7.0434 353.0872 15.15218569459814
CZ-2C R/B               
1 43521U 18054D   25283.93944412  .00062074  00000+0  66611-3 0  9990
2 43521  35.1366 242.6373 0030798 262.4907  97.2323 15.62022923405192
SAOCOM 1A               
1 43641U 18076A   25283.95460315  .00000594  00000+0  81171-4 0  9992
2 43641  97.8890 109.2803 0001446  88.7897 271.3482 14.82140139379184
H-2A R/B                
1 43682U 18084L   25283.95147232  .00019076  00000+0  56856-3 0  9992
2 43682  98.8834 105.1727 0029551 179.7676 180.3581 15.34310165382764
SAOCOM 1B               
1 46265U 20059A   25283.98587834  .00000586  00000+0  80215-4 0  9999
2 46265  97.8878 108.4156 0001361  92.2729 267.8640 14.82152515276573
CSS (TIANHE)            
1 48274U 21035A   25283.78035516  .00030259  00000+0  34642-3 0  9991
2 48274  41.4663  39.3610 0003031 224.3393 135.7204 15.61460494254199
COSMOS 2550             
1 48865U 21056A   25283.99636993 -.00000187  00000+0  15470-6 0  9998
2 48865  67.1396 133.7813 0008340 269.7176  90.3023 15.33829467240500
CZ-2C R/B               
1 52794U 22058K   25283.93111802  .00021293  00000+0  43895-3 0  9997
2 52794  50.1935   2.8198 0052783 296.1962  63.3583 15.44301330186917
GSLV R/B                
1 54149U 22138AN  25283.77293897  .00004289  00000+0  38261-3 0  9996
2 54149  87.3846 216.5393 0021122 344.2412  15.8158 14.95575914161510
XRISM                   
1 57800U 23137A   25283.96470327  .00005844  00000+0  35108-3 0  9994
2 57800  31.0011 170.5476 0008510 332.3956  27.6230 15.09371792115138
ACS3                    
1 59588U 24077B   25283.62110999  .00008234  00000+0  76719-2 0  9990
2 59588  97.3725 253.1203 0021554 340.4110  19.6219 13.82005479 73418
